{
"type": "FeatureCollection",
"name": "AI",
"crs": { "type": "name", "properties": { "name": "urn:ogc:def:crs:OGC:1.3:CRS84" } },
"features": [
{ "type": "Feature", "properties": { "featurecla": "Admin-0 country", "scalerank": 1, "LABELRANK": 6, "SOVEREIGNT": "United Kingdom", "SOV_A3": "GB1", "ADM0_DIF": 1, "LEVEL": 2, "TYPE": "Dependency", "TLC": "1", "ADMIN": "Anguilla", "ADM0_A3": "AIA", "GEOU_DIF": 0, "GEOUNIT": "Anguilla", "GU_A3": "AIA", "SU_DIF": 0, "SUBUNIT": "Anguilla", "SU_A3": "AIA", "BRK_DIFF": 0, "NAME": "Anguilla", "NAME_LONG": "Anguilla", "BRK_A3": "AIA", "BRK_NAME": "Anguilla", "BRK_GROUP": null, "ABBREV": "Ang.", "POSTAL": "AI", "FORMAL_EN": null, "FORMAL_FR": null, "NAME_CIAWF": "Anguilla", "NOTE_ADM0": "U.K.", "NOTE_BRK": null, "NAME_SORT": "Anguilla", "NAME_ALT": null, "MAPCOLOR7": 6, "MAPCOLOR8": 6, "MAPCOLOR9": 6, "MAPCOLOR13": 3, "POP_EST": 14731.0, "POP_RANK": 6, "POP_YEAR": 2018, "GDP_MD": 175, "GDP_YEAR": 2009, "ECONOMY": "6. Developing region", "INCOME_GRP": "3. Upper middle income", "FIPS_10": "AV", "ISO_A2": "AI", "ISO_A2_EH": "AI", "ISO_A3": "AIA", "ISO_A3_EH": "AIA", "ISO_N3": "660", "ISO_N3_EH": "660", "UN_A3": "660", "WB_A2": "-99", "WB_A3": "-99", "WOE_ID": 23424751, "WOE_ID_EH": 23424751, "WOE_NOTE": "Exact WOE match as country", "ADM0_ISO": "AIA", "ADM0_DIFF": null, "ADM0_A3_UN": -99, "ADM0_A3_WB": -99, "CONTINENT": "North America", "REGION_UN": "Americas", "SUBREGION": "Caribbean", "REGION_WB": "Latin America & Caribbean", "NAME_LEN": 8, "LONG_LEN": 8, "ABBREV_LEN": 4, "TINY": -99, "HOMEPART": -99, "MIN_ZOOM": 0.0, "MIN_LABEL": 5.0, "MAX_LABEL": 10.0, "LABEL_X": -63.026361, "LABEL_Y": 18.242979, "WIKIDATAID": "Q25228", "NAME_AR": "أنغويلا", "NAME_BN": "এ্যাঙ্গুইলা", "NAME_DE": "Anguilla", "NAME_EN": "Anguilla", "NAME_ES": "Anguila", "NAME_FA": "آنگویلا", "NAME_FR": "Anguilla", "NAME_EL": "Ανγκουίλα", "NAME_HE": "אנגווילה", "NAME_HI": "अंगुइला", "NAME_HU": "Anguilla", "NAME_ID": "Anguilla", "NAME_IT": "Anguilla", "NAME_JA": "アンギラ", "NAME_KO": "앵귈라", "NAME_NL": "Anguilla", "NAME_PL": "Anguilla", "NAME_PT": "Anguilla", "NAME_RU": "Ангилья", "NAME_SV": "Anguilla", "NAME_TR": "Anguilla", "NAME_UK": "Ангілья", "NAME_UR": "اینگویلا", "NAME_VI": "Anguilla", "NAME_ZH": "安圭拉", "NAME_ZHT": "安吉拉", "FCLASS_ISO": "Admin-0 dependency", "TLC_DIFF": null, "FCLASS_TLC": "Admin-0 dependency" }, "geometry": { "type": "MultiPolygon", "coordinates": [ [ [ [ -63.001220703125, 18.221777343749991 ], [ -63.160009765624991, 18.17138671875 ], [ -63.1533203125, 18.200292968749991 ], [ -63.026025390624994, 18.269726562499997 ], [ -62.979589843749991, 18.264794921874994 ], [ -63.001220703125, 18.221777343749991 ] ] ] ] } }
]
}
