{
"type": "FeatureCollection",
"name": "CK",
"crs": { "type": "name", "properties": { "name": "urn:ogc:def:crs:OGC:1.3:CRS84" } },
"features": [
{ "type": "Feature", "properties": { "featurecla": "Admin-0 country", "scalerank": 3, "LABELRANK": 4, "SOVEREIGNT": "New Zealand", "SOV_A3": "NZ1", "ADM0_DIF": 1, "LEVEL": 2, "TYPE": "Dependency", "TLC": "1", "ADMIN": "Cook Islands", "ADM0_A3": "COK", "GEOU_DIF": 0, "GEOUNIT": "Cook Islands", "GU_A3": "COK", "SU_DIF": 0, "SUBUNIT": "Cook Islands", "SU_A3": "COK", "BRK_DIFF": 0, "NAME": "Cook Is.", "NAME_LONG": "Cook Islands", "BRK_A3": "COK", "BRK_NAME": "Cook Is.", "BRK_GROUP": null, "ABBREV": "Cook Is.", "POSTAL": "CK", "FORMAL_EN": null, "FORMAL_FR": null, "NAME_CIAWF": "Cook Islands", "NOTE_ADM0": "Assoc. with N.Z.", "NOTE_BRK": "Assoc. with N.Z.", "NAME_SORT": "Cook Islands", "NAME_ALT": null, "MAPCOLOR7": 3, "MAPCOLOR8": 3, "MAPCOLOR9": 4, "MAPCOLOR13": 4, "POP_EST": 17459.0, "POP_RANK": 6, "POP_YEAR": 2016, "GDP_MD": 244, "GDP_YEAR": 2010, "ECONOMY": "6. Developing region", "INCOME_GRP": "3. Upper middle income", "FIPS_10": "CW", "ISO_A2": "CK", "ISO_A2_EH": "CK", "ISO_A3": "COK", "ISO_A3_EH": "COK", "ISO_N3": "184", "ISO_N3_EH": "184", "UN_A3": "184", "WB_A2": "-99", "WB_A3": "-99", "WOE_ID": 23424795, "WOE_ID_EH": 23424795, "WOE_NOTE": "Exact WOE match as country", "ADM0_ISO": "COK", "ADM0_DIFF": null, "ADM0_A3_UN": -99, "ADM0_A3_WB": -99, "CONTINENT": "Oceania", "REGION_UN": "Oceania", "SUBREGION": "Polynesia", "REGION_WB": "East Asia & Pacific", "NAME_LEN": 8, "LONG_LEN": 12, "ABBREV_LEN": 8, "TINY": 3, "HOMEPART": -99, "MIN_ZOOM": 0.0, "MIN_LABEL": 4.0, "MAX_LABEL": 9.0, "LABEL_X": -159.785675, "LABEL_Y": -21.215993, "WIKIDATAID": "Q26988", "NAME_AR": "جزر كوك", "NAME_BN": "কুক দ্বীপপুঞ্জ", "NAME_DE": "Cookinseln", "NAME_EN": "Cook Islands", "NAME_ES": "Islas Cook", "NAME_FA": "جزایر کوک", "NAME_FR": "Îles Cook", "NAME_EL": "Νήσοι Κουκ", "NAME_HE": "איי קוק", "NAME_HI": "कुक द्वीपसमूह", "NAME_HU": "Cook-szigetek", "NAME_ID": "Kepulauan Cook", "NAME_IT": "Isole Cook", "NAME_JA": "クック諸島", "NAME_KO": "쿡 제도", "NAME_NL": "Cookeilanden", "NAME_PL": "Wyspy Cooka", "NAME_PT": "Ilhas Cook", "NAME_RU": "Острова Кука", "NAME_SV": "Cooköarna", "NAME_TR": "Cook Adaları", "NAME_UK": "Острови Кука", "NAME_UR": "جزائر کک", "NAME_VI": "Quần đảo Cook", "NAME_ZH": "库克群岛", "NAME_ZHT": "庫克群島", "FCLASS_ISO": "Admin-0 dependency", "TLC_DIFF": null, "FCLASS_TLC": "Admin-0 dependency" }, "geometry": { "type": "MultiPolygon", "coordinates": [ [ [ [ -159.740527343749989, -21.249218750000011 ], [ -159.772558593750006, -21.24951171875 ], [ -159.813085937500006, -21.242089843750009 ], [ -159.839599609375, -21.238085937500003 ], [ -159.842480468750011, -21.229101562500006 ], [ -159.83203125, -21.200488281250003 ], [ -159.810595703124989, -21.186425781250009 ], [ -159.768359374999989, -21.1884765625 ], [ -159.739501953125, -21.208105468750006 ], [ -159.736865234374989, -21.240625 ], [ -159.740527343749989, -21.249218750000011 ] ] ] ] } }
]
}
