{
"type": "FeatureCollection",
"name": "GG",
"crs": { "type": "name", "properties": { "name": "urn:ogc:def:crs:OGC:1.3:CRS84" } },
"features": [
{ "type": "Feature", "properties": { "featurecla": "Admin-0 country", "scalerank": 4, "LABELRANK": 6, "SOVEREIGNT": "United Kingdom", "SOV_A3": "GB1", "ADM0_DIF": 1, "LEVEL": 2, "TYPE": "Country", "TLC": "1", "ADMIN": "Guernsey", "ADM0_A3": "GGY", "GEOU_DIF": 0, "GEOUNIT": "Guernsey", "GU_A3": "GGY", "SU_DIF": 0, "SUBUNIT": "Guernsey", "SU_A3": "GGY", "BRK_DIFF": 0, "NAME": "Guernsey", "NAME_LONG": "Guernsey", "BRK_A3": "GGY", "BRK_NAME": "Guernsey", "BRK_GROUP": "Channel Islands", "ABBREV": "Guern.", "POSTAL": "GG", "FORMAL_EN": "Bailiwick of Guernsey", "FORMAL_FR": null, "NAME_CIAWF": "Guernsey", "NOTE_ADM0": "U.K.", "NOTE_BRK": "U.K. crown dependency", "NAME_SORT": "Guernsey", "NAME_ALT": null, "MAPCOLOR7": 6, "MAPCOLOR8": 6, "MAPCOLOR9": 6, "MAPCOLOR13": 3, "POP_EST": 62792.0, "POP_RANK": 8, "POP_YEAR": 2019, "GDP_MD": 3465, "GDP_YEAR": 2015, "ECONOMY": "2. Developed region: nonG7", "INCOME_GRP": "2. High income: nonOECD", "FIPS_10": "GK", "ISO_A2": "GG", "ISO_A2_EH": "GG", "ISO_A3": "GGY", "ISO_A3_EH": "GGY", "ISO_N3": "831", "ISO_N3_EH": "831", "UN_A3": "831", "WB_A2": "JG", "WB_A3": "CHI", "WOE_ID": 23424827, "WOE_ID_EH": 23424827, "WOE_NOTE": "Exact WOE match as country", "ADM0_ISO": "GGY", "ADM0_DIFF": null, "ADM0_A3_UN": -99, "ADM0_A3_WB": -99, "CONTINENT": "Europe", "REGION_UN": "Europe", "SUBREGION": "Northern Europe", "REGION_WB": "Europe & Central Asia", "NAME_LEN": 8, "LONG_LEN": 8, "ABBREV_LEN": 6, "TINY": -99, "HOMEPART": -99, "MIN_ZOOM": 0.0, "MIN_LABEL": 5.0, "MAX_LABEL": 10.0, "LABEL_X": -2.561736, "LABEL_Y": 49.463533, "WIKIDATAID": "Q25230", "NAME_AR": "غيرنزي", "NAME_BN": "গার্নসি", "NAME_DE": "Guernsey", "NAME_EN": "Guernsey", "NAME_ES": "Guernsey", "NAME_FA": "گرنزی", "NAME_FR": "Guernesey", "NAME_EL": "Γκέρνσεϊ", "NAME_HE": "גרנזי", "NAME_HI": "ग्वेर्नसे", "NAME_HU": "Guernsey Bailiffség", "NAME_ID": "Guernsey", "NAME_IT": "Guernsey", "NAME_JA": "ガーンジー", "NAME_KO": "건지섬", "NAME_NL": "Guernsey", "NAME_PL": "Guernsey", "NAME_PT": "Guernsey", "NAME_RU": "Гернси", "NAME_SV": "Guernsey", "NAME_TR": "Guernsey", "NAME_UK": "Гернсі", "NAME_UR": "گرنزی", "NAME_VI": "Guernsey", "NAME_ZH": "根西", "NAME_ZHT": "根西", "FCLASS_ISO": "Admin-0 country", "TLC_DIFF": null, "FCLASS_TLC": "Admin-0 country" }, "geometry": { "type": "MultiPolygon", "coordinates": [ [ [ [ -2.512304687499977, 49.49453125 ], [ -2.54736328125, 49.4287109375 ], [ -2.639013671874977, 49.450927734375 ], [ -2.646142578124994, 49.468212890624997 ], [ -2.542187499999983, 49.506591796875 ], [ -2.520898437499994, 49.506298828124997 ], [ -2.512304687499977, 49.49453125 ] ] ] ] } }
]
}
