{
"type": "FeatureCollection",
"name": "MS",
"crs": { "type": "name", "properties": { "name": "urn:ogc:def:crs:OGC:1.3:CRS84" } },
"features": [
{ "type": "Feature", "properties": { "featurecla": "Admin-0 country", "scalerank": 3, "LABELRANK": 6, "SOVEREIGNT": "United Kingdom", "SOV_A3": "GB1", "ADM0_DIF": 1, "LEVEL": 2, "TYPE": "Dependency", "TLC": "1", "ADMIN": "Montserrat", "ADM0_A3": "MSR", "GEOU_DIF": 0, "GEOUNIT": "Montserrat", "GU_A3": "MSR", "SU_DIF": 0, "SUBUNIT": "Montserrat", "SU_A3": "MSR", "BRK_DIFF": 0, "NAME": "Montserrat", "NAME_LONG": "Montserrat", "BRK_A3": "MSR", "BRK_NAME": "Montserrat", "BRK_GROUP": null, "ABBREV": "Monts.", "POSTAL": "MS", "FORMAL_EN": null, "FORMAL_FR": null, "NAME_CIAWF": "Montserrat", "NOTE_ADM0": "U.K.", "NOTE_BRK": null, "NAME_SORT": "Montserrat", "NAME_ALT": null, "MAPCOLOR7": 6, "MAPCOLOR8": 6, "MAPCOLOR9": 6, "MAPCOLOR13": 3, "POP_EST": 4649.0, "POP_RANK": 4, "POP_YEAR": 2019, "GDP_MD": 44, "GDP_YEAR": 2006, "ECONOMY": "6. Developing region", "INCOME_GRP": "4. Lower middle income", "FIPS_10": "MH", "ISO_A2": "MS", "ISO_A2_EH": "MS", "ISO_A3": "MSR", "ISO_A3_EH": "MSR", "ISO_N3": "500", "ISO_N3_EH": "500", "UN_A3": "500", "WB_A2": "-99", "WB_A3": "-99", "WOE_ID": 23424888, "WOE_ID_EH": 23424888, "WOE_NOTE": "Exact WOE match as country", "ADM0_ISO": "MSR", "ADM0_DIFF": null, "ADM0_A3_UN": -99, "ADM0_A3_WB": -99, "CONTINENT": "North America", "REGION_UN": "Americas", "SUBREGION": "Caribbean", "REGION_WB": "Latin America & Caribbean", "NAME_LEN": 10, "LONG_LEN": 10, "ABBREV_LEN": 6, "TINY": 6, "HOMEPART": -99, "MIN_ZOOM": 0.0, "MIN_LABEL": 5.0, "MAX_LABEL": 10.0, "LABEL_X": -62.188252, "LABEL_Y": 16.73717, "WIKIDATAID": "Q13353", "NAME_AR": "مونتسرات", "NAME_BN": "মন্টসেরাট", "NAME_DE": "Montserrat", "NAME_EN": "Montserrat", "NAME_ES": "Montserrat", "NAME_FA": "مونتسرات", "NAME_FR": "Montserrat", "NAME_EL": "Μοντσερράτ", "NAME_HE": "מונטסראט", "NAME_HI": "मॉण्टसेराट", "NAME_HU": "Montserrat", "NAME_ID": "Montserrat", "NAME_IT": "Montserrat", "NAME_JA": "モントセラト", "NAME_KO": "몬트세랫", "NAME_NL": "Montserrat", "NAME_PL": "Montserrat", "NAME_PT": "Montserrat", "NAME_RU": "Монтсеррат", "NAME_SV": "Montserrat", "NAME_TR": "Montserrat", "NAME_UK": "Монтсеррат", "NAME_UR": "مانٹسریٹ", "NAME_VI": "Montserrat", "NAME_ZH": "蒙特塞拉特", "NAME_ZHT": "蒙哲臘", "FCLASS_ISO": "Admin-0 dependency", "TLC_DIFF": null, "FCLASS_TLC": "Admin-0 dependency" }, "geometry": { "type": "MultiPolygon", "coordinates": [ [ [ [ -62.1484375, 16.740332031249991 ], [ -62.154248046874997, 16.681201171875003 ], [ -62.221630859374997, 16.699511718750003 ], [ -62.223046875, 16.7515625 ], [ -62.191357421874997, 16.804394531249997 ], [ -62.17578125, 16.8095703125 ], [ -62.1484375, 16.740332031249991 ] ] ] ] } }
]
}
