{
"type": "FeatureCollection",
"name": "BL",
"crs": { "type": "name", "properties": { "name": "urn:ogc:def:crs:OGC:1.3:CRS84" } },
"features": [
{ "type": "Feature", "properties": { "featurecla": "Admin-0 country", "scalerank": 3, "LABELRANK": 6, "SOVEREIGNT": "France", "SOV_A3": "FR1", "ADM0_DIF": 1, "LEVEL": 2, "TYPE": "Dependency", "TLC": "1", "ADMIN": "Saint Barthelemy", "ADM0_A3": "BLM", "GEOU_DIF": 0, "GEOUNIT": "Saint Barthelemy", "GU_A3": "BLM", "SU_DIF": 0, "SUBUNIT": "Saint Barthelemy", "SU_A3": "BLM", "BRK_DIFF": 0, "NAME": "St-Barthélemy", "NAME_LONG": "Saint-Barthélemy", "BRK_A3": "BLM", "BRK_NAME": "St-Barthélemy", "BRK_GROUP": null, "ABBREV": "St. B.", "POSTAL": "BL", "FORMAL_EN": "Saint-Barthélemy", "FORMAL_FR": null, "NAME_CIAWF": "Saint Barthelemy", "NOTE_ADM0": "Fr.", "NOTE_BRK": null, "NAME_SORT": "St-Barthélemy", "NAME_ALT": null, "MAPCOLOR7": 7, "MAPCOLOR8": 5, "MAPCOLOR9": 9, "MAPCOLOR13": 11, "POP_EST": 9961.0, "POP_RANK": 5, "POP_YEAR": 2017, "GDP_MD": 255, "GDP_YEAR": 2016, "ECONOMY": "2. Developed region: nonG7", "INCOME_GRP": "1. High income: OECD", "FIPS_10": "TB", "ISO_A2": "BL", "ISO_A2_EH": "BL", "ISO_A3": "BLM", "ISO_A3_EH": "BLM", "ISO_N3": "652", "ISO_N3_EH": "652", "UN_A3": "652", "WB_A2": "-99", "WB_A3": "-99", "WOE_ID": 56042304, "WOE_ID_EH": 56042304, "WOE_NOTE": "Exact WOE match as country", "ADM0_ISO": "BLM", "ADM0_DIFF": null, "ADM0_A3_UN": -99, "ADM0_A3_WB": -99, "CONTINENT": "North America", "REGION_UN": "Americas", "SUBREGION": "Caribbean", "REGION_WB": "Latin America & Caribbean", "NAME_LEN": 13, "LONG_LEN": 16, "ABBREV_LEN": 6, "TINY": 4, "HOMEPART": -99, "MIN_ZOOM": 0.0, "MIN_LABEL": 5.7, "MAX_LABEL": 10.0, "LABEL_X": -62.833193, "LABEL_Y": 17.901987, "WIKIDATAID": "Q25362", "NAME_AR": "سان بارتيلمي", "NAME_BN": "সেন্ট-বার্থেলেমি", "NAME_DE": "Saint-Barthélemy", "NAME_EN": "Saint Barthélemy", "NAME_ES": "San Bartolomé", "NAME_FA": "سنت بارثلمی", "NAME_FR": "Saint-Barthélemy", "NAME_EL": "Άγιος Βαρθολομαίος", "NAME_HE": "סן ברתלמי", "NAME_HI": "सेंट बार्थेलेमी", "NAME_HU": "Saint-Barthélemy", "NAME_ID": "Saint-Barthélemy", "NAME_IT": "Saint-Barthélemy", "NAME_JA": "サン・バルテルミー島", "NAME_KO": "생바르텔레미", "NAME_NL": "Saint-Barthélemy", "NAME_PL": "Saint-Barthélemy", "NAME_PT": "Coletividade de São Bartolomeu", "NAME_RU": "Сен-Бартелеми", "NAME_SV": "Saint-Barthélemy", "NAME_TR": "Saint Barthélemy", "NAME_UK": "Сен-Бартельмі", "NAME_UR": "سینٹ بارتھیملے", "NAME_VI": "Saint-Barthélemy", "NAME_ZH": "圣巴泰勒米", "NAME_ZHT": "聖巴瑟米", "FCLASS_ISO": "Admin-0 dependency", "TLC_DIFF": null, "FCLASS_TLC": "Admin-0 dependency" }, "geometry": { "type": "MultiPolygon", "coordinates": [ [ [ [ -62.831933593749994, 17.87646484375 ], [ -62.846923828125, 17.875195312499997 ], [ -62.858935546874989, 17.883642578124991 ], [ -62.869384765625, 17.898583984374994 ], [ -62.875439453124997, 17.91357421875 ], [ -62.87421875, 17.922265625 ], [ -62.865429687499997, 17.918261718750003 ], [ -62.799707031249994, 17.90869140625 ], [ -62.80703125, 17.89765625 ], [ -62.818164062499989, 17.885449218749997 ], [ -62.831933593749994, 17.87646484375 ] ] ] ] } }
]
}
