{
"type": "FeatureCollection",
"name": "GU",
"crs": { "type": "name", "properties": { "name": "urn:ogc:def:crs:OGC:1.3:CRS84" } },
"features": [
{ "type": "Feature", "properties": { "featurecla": "Admin-0 country", "scalerank": 3, "LABELRANK": 6, "SOVEREIGNT": "United States of America", "SOV_A3": "US1", "ADM0_DIF": 1, "LEVEL": 2, "TYPE": "Dependency", "TLC": "1", "ADMIN": "Guam", "ADM0_A3": "GUM", "GEOU_DIF": 0, "GEOUNIT": "Guam", "GU_A3": "GUM", "SU_DIF": 0, "SUBUNIT": "Guam", "SU_A3": "GUM", "BRK_DIFF": 0, "NAME": "Guam", "NAME_LONG": "Guam", "BRK_A3": "GUM", "BRK_NAME": "Guam", "BRK_GROUP": null, "ABBREV": "Guam", "POSTAL": "GU", "FORMAL_EN": "Territory of Guam", "FORMAL_FR": null, "NAME_CIAWF": "Guam", "NOTE_ADM0": "U.S.A.", "NOTE_BRK": null, "NAME_SORT": "Guam", "NAME_ALT": null, "MAPCOLOR7": 4, "MAPCOLOR8": 5, "MAPCOLOR9": 1, "MAPCOLOR13": 1, "POP_EST": 167294.0, "POP_RANK": 9, "POP_YEAR": 2019, "GDP_MD": 5920, "GDP_YEAR": 2018, "ECONOMY": "6. Developing region", "INCOME_GRP": "2. High income: nonOECD", "FIPS_10": "GQ", "ISO_A2": "GU", "ISO_A2_EH": "GU", "ISO_A3": "GUM", "ISO_A3_EH": "GUM", "ISO_N3": "316", "ISO_N3_EH": "316", "UN_A3": "316", "WB_A2": "GU", "WB_A3": "GUM", "WOE_ID": 23424832, "WOE_ID_EH": 23424832, "WOE_NOTE": "Exact WOE match as country", "ADM0_ISO": "GUM", "ADM0_DIFF": null, "ADM0_A3_UN": -99, "ADM0_A3_WB": -99, "CONTINENT": "Oceania", "REGION_UN": "Oceania", "SUBREGION": "Micronesia", "REGION_WB": "East Asia & Pacific", "NAME_LEN": 4, "LONG_LEN": 4, "ABBREV_LEN": 4, "TINY": 2, "HOMEPART": -99, "MIN_ZOOM": 0.0, "MIN_LABEL": 3.0, "MAX_LABEL": 10.0, "LABEL_X": 144.703614, "LABEL_Y": 13.354173, "WIKIDATAID": "Q16635", "NAME_AR": "غوام", "NAME_BN": "গুয়াম", "NAME_DE": "Guam", "NAME_EN": "Guam", "NAME_ES": "Guam", "NAME_FA": "گوآم", "NAME_FR": "Guam", "NAME_EL": "Γκουάμ", "NAME_HE": "גואם", "NAME_HI": "गुआम", "NAME_HU": "Guam", "NAME_ID": "Guam", "NAME_IT": "Guam", "NAME_JA": "グアム", "NAME_KO": "괌", "NAME_NL": "Guam", "NAME_PL": "Guam", "NAME_PT": "Guam", "NAME_RU": "Гуам", "NAME_SV": "Guam", "NAME_TR": "Guam", "NAME_UK": "Гуам", "NAME_UR": "گوام", "NAME_VI": "Guam", "NAME_ZH": "关岛", "NAME_ZHT": "關島", "FCLASS_ISO": "Admin-0 dependency", "TLC_DIFF": null, "FCLASS_TLC": "Admin-0 dependency" }, "geometry": { "type": "MultiPolygon", "coordinates": [ [ [ [ 144.741796875000034, 13.25927734375 ], [ 144.699511718750045, 13.257519531249997 ], [ 144.662792968750011, 13.291064453125003 ], [ 144.65, 13.3134765625 ], [ 144.649316406250023, 13.4287109375 ], [ 144.790332031250045, 13.52685546875 ], [ 144.836718750000045, 13.622363281250003 ], [ 144.875390625000023, 13.614648437499994 ], [ 144.90966796875, 13.599023437499994 ], [ 144.940820312500023, 13.5703125 ], [ 144.779882812500034, 13.4111328125 ], [ 144.741796875000034, 13.25927734375 ] ] ] ] } }
]
}
