{
"type": "FeatureCollection",
"name": "MF",
"crs": { "type": "name", "properties": { "name": "urn:ogc:def:crs:OGC:1.3:CRS84" } },
"features": [
{ "type": "Feature", "properties": { "featurecla": "Admin-0 country", "scalerank": 3, "LABELRANK": 6, "SOVEREIGNT": "France", "SOV_A3": "FR1", "ADM0_DIF": 1, "LEVEL": 2, "TYPE": "Dependency", "TLC": "1", "ADMIN": "Saint Martin", "ADM0_A3": "MAF", "GEOU_DIF": 0, "GEOUNIT": "Saint Martin", "GU_A3": "MAF", "SU_DIF": 0, "SUBUNIT": "Saint Martin", "SU_A3": "MAF", "BRK_DIFF": 0, "NAME": "St-Martin", "NAME_LONG": "Saint-Martin", "BRK_A3": "MAF", "BRK_NAME": "Saint-Martin", "BRK_GROUP": null, "ABBREV": "St. M.", "POSTAL": "MF", "FORMAL_EN": "Saint-Martin (French part)", "FORMAL_FR": null, "NAME_CIAWF": "Saint Martin", "NOTE_ADM0": "Fr.", "NOTE_BRK": null, "NAME_SORT": "St. Martin (French part)", "NAME_ALT": null, "MAPCOLOR7": 7, "MAPCOLOR8": 5, "MAPCOLOR9": 9, "MAPCOLOR13": 11, "POP_EST": 38002.0, "POP_RANK": 7, "POP_YEAR": 2019, "GDP_MD": 562, "GDP_YEAR": 2016, "ECONOMY": "6. Developing region", "INCOME_GRP": "2. High income: nonOECD", "FIPS_10": "RN", "ISO_A2": "MF", "ISO_A2_EH": "MF", "ISO_A3": "MAF", "ISO_A3_EH": "MAF", "ISO_N3": "663", "ISO_N3_EH": "663", "UN_A3": "663", "WB_A2": "MF", "WB_A3": "MAF", "WOE_ID": 56042305, "WOE_ID_EH": 56042305, "WOE_NOTE": "Exact WOE match as country", "ADM0_ISO": "MAF", "ADM0_DIFF": null, "ADM0_A3_UN": -99, "ADM0_A3_WB": -99, "CONTINENT": "North America", "REGION_UN": "Americas", "SUBREGION": "Caribbean", "REGION_WB": "Latin America & Caribbean", "NAME_LEN": 9, "LONG_LEN": 12, "ABBREV_LEN": 6, "TINY": 4, "HOMEPART": -99, "MIN_ZOOM": 0.0, "MIN_LABEL": 5.0, "MAX_LABEL": 10.0, "LABEL_X": -63.049399, "LABEL_Y": 18.081302, "WIKIDATAID": "Q126125", "NAME_AR": "تجمع سان مارتين", "NAME_BN": "সেন্ট-মার্টিন", "NAME_DE": "Saint-Martin", "NAME_EN": "Saint Martin", "NAME_ES": "San Martín", "NAME_FA": "سنت مارتین فرانسه", "NAME_FR": "Saint-Martin", "NAME_EL": "Άγιος Μαρτίνος", "NAME_HE": "סן מרטן", "NAME_HI": "सेंट मार्टिन की सामूहिकता", "NAME_HU": "Saint-Martin", "NAME_ID": "Saint Martin", "NAME_IT": "Saint-Martin", "NAME_JA": "サン・マルタン", "NAME_KO": "생마르탱", "NAME_NL": "Sint-Maarten", "NAME_PL": "Saint-Martin", "NAME_PT": "São Martinho", "NAME_RU": "Сен-Мартен", "NAME_SV": "Saint Martin", "NAME_TR": "Saint Martin", "NAME_UK": "Сен-Мартен", "NAME_UR": "سینٹ مارٹن", "NAME_VI": "Saint-Martin", "NAME_ZH": "法属圣马丁", "NAME_ZHT": "法屬聖馬丁", "FCLASS_ISO": "Admin-0 dependency", "TLC_DIFF": null, "FCLASS_TLC": "Admin-0 dependency" }, "geometry": { "type": "MultiPolygon", "coordinates": [ [ [ [ -63.011181640624997, 18.068945312499991 ], [ -63.123046875, 18.068945312499991 ], [ -63.114990234375, 18.090722656249994 ], [ -63.063085937499991, 18.115332031249991 ], [ -63.024804687499994, 18.113085937500003 ], [ -63.009423828124994, 18.104296875 ], [ -63.011181640624997, 18.068945312499991 ] ] ] ] } }
]
}
