{
"type": "FeatureCollection",
"name": "SH",
"crs": { "type": "name", "properties": { "name": "urn:ogc:def:crs:OGC:1.3:CRS84" } },
"features": [
{ "type": "Feature", "properties": { "featurecla": "Admin-0 country", "scalerank": 3, "LABELRANK": 6, "SOVEREIGNT": "United Kingdom", "SOV_A3": "GB1", "ADM0_DIF": 1, "LEVEL": 2, "TYPE": "Dependency", "TLC": "1", "ADMIN": "Saint Helena", "ADM0_A3": "SHN", "GEOU_DIF": 0, "GEOUNIT": "Saint Helena", "GU_A3": "SHN", "SU_DIF": 0, "SUBUNIT": "Saint Helena", "SU_A3": "SHN", "BRK_DIFF": 0, "NAME": "Saint Helena", "NAME_LONG": "Saint Helena", "BRK_A3": "SHN", "BRK_NAME": "Saint Helena", "BRK_GROUP": null, "ABBREV": "St.H.", "POSTAL": "SH", "FORMAL_EN": null, "FORMAL_FR": null, "NAME_CIAWF": "Saint Helena, Ascension, and Tristan da Cunha", "NOTE_ADM0": "U.K.", "NOTE_BRK": null, "NAME_SORT": "St. Helena", "NAME_ALT": null, "MAPCOLOR7": 6, "MAPCOLOR8": 6, "MAPCOLOR9": 6, "MAPCOLOR13": 3, "POP_EST": 4534.0, "POP_RANK": 4, "POP_YEAR": 2016, "GDP_MD": 31, "GDP_YEAR": 2010, "ECONOMY": "6. Developing region", "INCOME_GRP": "4. Lower middle income", "FIPS_10": "SH", "ISO_A2": "SH", "ISO_A2_EH": "SH", "ISO_A3": "SHN", "ISO_A3_EH": "SHN", "ISO_N3": "654", "ISO_N3_EH": "654", "UN_A3": "654", "WB_A2": "-99", "WB_A3": "-99", "WOE_ID": 23424944, "WOE_ID_EH": 23424944, "WOE_NOTE": "Exact WOE match as country", "ADM0_ISO": "SHN", "ADM0_DIFF": null, "ADM0_A3_UN": -99, "ADM0_A3_WB": -99, "CONTINENT": "Seven seas (open ocean)", "REGION_UN": "Africa", "SUBREGION": "Western Africa", "REGION_WB": "Sub-Saharan Africa", "NAME_LEN": 12, "LONG_LEN": 12, "ABBREV_LEN": 5, "TINY": -99, "HOMEPART": -99, "MIN_ZOOM": 0.0, "MIN_LABEL": 5.0, "MAX_LABEL": 10.0, "LABEL_X": -5.71262, "LABEL_Y": -15.950487, "WIKIDATAID": "Q34497", "NAME_AR": "سانت هيلينا", "NAME_BN": "সেন্ট হেলেনা", "NAME_DE": "St. Helena", "NAME_EN": "Saint Helena", "NAME_ES": "Isla Santa Elena", "NAME_FA": "سینت هلینا", "NAME_FR": "Sainte-Hélène", "NAME_EL": "Νήσος Αγίας Ελένης", "NAME_HE": "סנט הלנה", "NAME_HI": "सन्त हेलेना", "NAME_HU": "Szent Ilona", "NAME_ID": "Saint Helena", "NAME_IT": "Sant'Elena", "NAME_JA": "セントヘレナ", "NAME_KO": "세인트헬레나", "NAME_NL": "Sint-Helena", "NAME_PL": "Wyspa Świętej Heleny", "NAME_PT": "Santa Helena", "NAME_RU": "Остров Святой Елены", "NAME_SV": "Sankta Helena", "NAME_TR": "Saint Helena", "NAME_UK": "Острів Святої Єлени", "NAME_UR": "سینٹ ہلینا", "NAME_VI": "Saint Helena", "NAME_ZH": "圣赫勒拿", "NAME_ZHT": "聖赫勒拿", "FCLASS_ISO": "Admin-0 dependency", "TLC_DIFF": null, "FCLASS_TLC": "Admin-0 dependency" }, "geometry": { "type": "MultiPolygon", "coordinates": [ [ [ [ -5.692138671875, -15.997753906250011 ], [ -5.782519531249989, -16.004003906250006 ], [ -5.775048828124994, -15.956738281250011 ], [ -5.707861328124977, -15.906152343750009 ], [ -5.6625, -15.912792968750011 ], [ -5.659716796874989, -15.970898437500011 ], [ -5.692138671875, -15.997753906250011 ] ] ], [ [ [ -14.364355468749977, -7.974316406250011 ], [ -14.398681640625, -7.975781250000011 ], [ -14.40869140625, -7.967480468750011 ], [ -14.414941406249994, -7.94375 ], [ -14.398583984374994, -7.90576171875 ], [ -14.383642578124977, -7.882617187500003 ], [ -14.360400390624989, -7.885937500000011 ], [ -14.328857421875, -7.91259765625 ], [ -14.302539062499989, -7.935449218750009 ], [ -14.316796875, -7.956152343750006 ], [ -14.364355468749977, -7.974316406250011 ] ] ] ] } }
]
}
